#cP2014  2  4  0  0  0.00000000      96 ORBIT IGb08 HLM  IGS
## 1778 172800.00000000   900.00000000 56692 0.0000000000000
+   32   G01G02G03G04G05G06G07G08G09G10G11G12G13G14G15G16G17
+        G18G19G20G21G22G23G24G25G26G27G28G29G30G31G32  0  0
+          0  0  0  0  0  0  0  0  0  0  0  0  0  0  0  0  0
+          0  0  0  0  0  0  0  0  0  0  0  0  0  0  0  0  0
+          0  0  0  0  0  0  0  0  0  0  0  0  0  0  0  0  0
++         2  2  2  2  2  2  2  3  3  2  2  2  2  2  2  3  2
++         2  2  2  2  2  2  4  2  2  2  2  2  0  2  2  0  0
++         0  0  0  0  0  0  0  0  0  0  0  0  0  0  0  0  0
++         0  0  0  0  0  0  0  0  0  0  0  0  0  0  0  0  0
++         0  0  0  0  0  0  0  0  0  0  0  0  0  0  0  0  0
%c G  cc GPS ccc cccc cccc cccc cccc ccccc ccccc ccccc ccccc
%c cc cc ccc ccc cccc cccc cccc cccc ccccc ccccc ccccc ccccc
%f  1.2500000  1.025000000  0.00000000000  0.000000000000000
%f  0.0000000  0.000000000  0.00000000000  0.000000000000000
%i    0    0    0    0      0      0      0      0         0
%i    0    0    0    0      0      0      0      0         0
/* FINAL ORBIT COMBINATION FROM WEIGHTED AVERAGE OF:        
/* cod emr esa gfz grg jpl mit ngs sio                      
/* REFERENCED TO IGS TIME (IGST) AND TO WEIGHTED MEAN POLE: 
/* PCV:IGS08_1771 OL/AL:FES2004  NONE     Y  ORB:CMB CLK:CMB
*  2014  2  4 15  0  0.00000000
PG01  -5220.058637  18083.081638 -18725.616550     -2.744217  6  6  7 138       
PG02  21563.790892 -14921.951596   2037.627603    476.715758  7  9  4 123       
PG03  -8706.550472  19114.955414  15619.616908    321.394663  7  1  3  97       
PG04  23498.612453  -3211.313198 -12506.095250      5.319031  5  9  3 107       
PG05  14822.992819  -8408.407142  20368.262429   -389.874539  7  8  4 119       
PG06 -13709.237505  10888.899673  19910.184469    262.779562  6  6  3  91       
PG07  10359.666761  11213.736089  21830.974725    310.231278  4  5  4 122       
PG08  19982.522919   3752.284772  17559.713496     11.744668  3  7  3 102       
PG09  20246.531943   1159.729533  16707.847449    303.057751  7  4  7  83       
PG10  24276.130110   7778.864830   7860.670568   -112.889573  5  8  5 116       
PG11  -8711.891792  22739.598285 -10825.277502   -461.438955  8  3  6  96       
PG12  -2498.376713 -17273.611537 -20138.643575    184.392277  8  8  6 127       
PG13   5724.935475  22858.187990  11972.340334     33.004704  6  8  6  95       
PG14 -13889.127327  -7738.242267 -21086.072929    201.029786  9  8  9 109       
PG15   4557.948915 -24917.151062   7428.408219   -161.311950  9  8  4 114       
PG16 -14551.614829   7143.954875  21084.471391   -232.828138  8  7  3  98       
PG17  14343.039345   6459.864856 -21188.618284    -65.336799  7  9  4 119       
PG18 -19132.185143 -17295.126421   7470.013314    300.017760  6  8  5  84       
PG19  -7570.752958  23972.467161   7715.254605   -436.702294  7  5  3  87       
PG20   5279.160846  18320.810218 -18710.043918    158.810656  6  7  7  87       
PG21 -12582.777447 -10973.249068  21337.037360   -342.092232  4  5  6  94       
PG22 -24218.042372 -10264.103624  -4050.609960    211.176372  7  7  6 115       
PG23    358.312082  26323.672631    837.774081      6.816007  8  7  6  64       
PG24  10106.312340 -18841.042004 -15711.843847    -22.740785 12 11 10 150       
PG25 -14953.216458 -18211.778601 -12432.511858     12.877213  8  6  3 112       
PG26  12370.182664 -16515.030071  15888.250091    174.711297  6  6  5 108       
PG27 -12565.568829  14770.232713  18131.414249    -17.507840  6  5  6  88       
PG28  22621.140016  13944.372223  -1236.090804    329.945825  6  8  6 102       
PG29  -5170.617853 -24391.017687   9262.008167    508.405546  7  6  6 100       
PG30 -23625.341343  -5512.310203  10903.082061 999999.999999
PG31 -24273.958750   6199.516699  -9118.613048    332.969210  5  8  8 120       
PG32  -7347.613946  13692.814532 -21487.827022   -491.173513  4  5  5 111       
*  2014  2  4 15 15  0.00000000
PG01  -7040.341797  19033.734573 -17104.479285     -2.742127  6  6  7 135       
PG02  21796.027595 -14649.439737   -803.675912    476.717730  7  9  4 120       
PG03  -9290.161903  17196.479328  17371.519949    321.400129  7     2 105       
PG04  22346.484765  -2215.389603 -14676.156759      5.319348  5  9  4  96       
PG05  16786.321607  -7250.956688  19276.530762   -389.873364  7  8  3 117       
PG06 -14059.503190   8577.985026  20814.279782    262.792549  6  6  4  93       
PG07   8220.319432  12485.666268  22022.481017    310.235204  5  6  4 119       
PG08  18148.910876   4668.951554  19212.114478     11.744745  2  7  3 103       
PG09  18530.395306   2368.215678  18416.182411    303.058188  6  4  7  76       
PG10  24829.677803   8389.100104   5199.671058   -112.890777  4  8  5 110       
PG11  -9707.300200  23289.685669  -8416.305394   -461.442110  8  3  6 101       
PG12   -445.095390 -16145.530162 -21180.813106    184.394744  8  8  6 134       
PG13   5446.329464  24087.425525   9442.154731     33.001310  6  8  6  90       
PG14 -13725.552285 -10133.037304 -20180.376657    201.027238  8  8  9 103       
PG15   4941.614370 -23926.224797  10006.718222   -161.313760  9  8  4 111       
PG16 -16528.854858   5885.865301  20020.647097   -232.827061  8  7  3 100       
PG17  14263.584320   8882.676952 -20379.577327    -65.339743  6  8  4 115       
PG18 -18161.955946 -17114.771767   9993.822376    300.019869  5  8  6  73       
PG19  -7763.430833  22898.383829  10342.357529   -436.704063  7  5  3  74       
PG20   3236.605714  17541.442744 -19889.790784    158.813835  5  7  7  84       
PG21 -10614.422097 -12239.107700  21682.700686   -342.094883  4  4  6  92       
PG22 -24346.599943 -10723.317020  -1301.861774    211.178993  6  7  6  98       
PG23     46.318882  26252.071130  -2024.926114      6.813314  8  8  6  67       
PG24  11629.579171 -19577.089241 -13609.260997    -22.742236 12 11 10 151       
PG25 -13519.057702 -17636.695225 -14696.362741     12.878945  8  6  3 116       
PG26  12409.684120 -14463.049064  17709.629637    174.701515  5  6  5 108       
PG27 -12772.712656  12618.824972  19558.397173    -17.509178  5  5  6  98       
PG28  22566.139834  14114.923997   1659.870837    329.948696  6  8  6 100       
PG29  -4941.703867 -25287.012913   6588.818958    508.408353  7  7  6 102       
PG30 -24517.803685  -6196.052295   8311.379810 999999.999999
PG31 -23320.982798   5455.239607 -11652.349455    332.969472  4  8  8 107       
PG32  -9415.397220  12327.800326 -21459.193123   -491.167942  4  6  5 105       
*  2014  2  4 15 30  0.00000000
PG01  -8645.798494  19962.758824 -15188.357796     -2.740033  6  7  7 129       
PG02  21781.906281 -14193.524186  -3630.666036    476.719644  7  9  4 119       
PG03 -10008.115963  15127.115060  18810.210481    321.404964  7       103       
PG04  21060.035791  -1031.666625 -16601.083893      5.319653  6  9  3 104       
PG05  18674.635077  -6253.041101  17853.438264   -389.871781  7  8  3 118       
PG06 -14535.059417   6210.135675  21359.501781    262.805651  6  7  5  91       
PG07   6150.500340  13874.208674  21837.465963    310.238701  6  7  5 117       
PG08  16223.236673   5774.786372  20544.042188     11.743773  1  7  3 101       
PG09  16734.564227   3775.327570  19795.597759    303.060360  4  4  6  76       
PG10  25139.279429   8836.722183   2450.727542   -112.893210  4  8  5 102       
PG11 -10517.443801  23659.027518  -5863.140731   -461.445107  8  3  6  86       
PG12   1757.318711 -15090.837528 -21861.639296    184.396857  8  9  7  76       
PG13   5238.839131  25031.447416   6747.216199     32.997739  6  9  6  82       
PG14 -13687.810156 -12407.428859 -18922.111641    201.024067  8  8  8 105       
PG15   5407.255470 -22674.273753  12409.685189   -161.315753  8  8  4 116       
PG16 -18447.896310   4808.443808  18614.655354   -232.825561  8  7  2 100       
PG17  14306.566026  11190.538564 -19213.999227    -65.342721  4  8  4 113       
PG18 -16939.873425 -16867.669835  12351.740298    300.021885  5  8  6  81       
PG19  -8011.220748  21545.274795  12786.097926   -436.706683  7  6  3  48       
PG20   1054.429435  16818.258105 -20733.246803    158.816929  5  7  7  96       
PG21  -8692.507328 -13614.020517  21675.768335   -342.096290  4  4  6  95       
PG22 -24215.232111 -11045.623239   1469.123640    211.181027  5  6  6 106       
PG23   -295.970938  25872.072473  -4851.846485      6.810065  8  8  5  72       
PG24  12909.609558 -20243.035186 -11271.611819    -22.743034 12 11  9 152       
PG25 -11835.332430 -17041.303728 -16709.616358     12.880613  8  6  3 109       
PG26  12557.333649 -12220.483312  19206.762185    174.691850  5  7  5 108       
PG27 -13105.702060  10339.550019  20648.446029    -17.510475  5  6  6  80       
PG28  22236.316654  14131.230540   4527.670124    329.950920  6  8  6 107       
PG29  -4747.448408 -25885.528231   3802.666117    508.410635  7  8  6  96       
PG30 -25174.031514  -6698.617663   5577.560566 999999.999999
PG31 -22181.301516   4503.697856 -13987.196210    332.969383  3  8  7 104       
PG32 -11531.899263  11076.508279 -21057.909258   -491.162269  4  6  5 111       
EOF
